COSMOS 2550             
1 48865U 21056A   25322.72961796  .00000370  00000+0  17085-4 0  9990
2 48865  67.1441  16.5593 0007892 266.8859  93.1392 15.33809886246443
CZ-2C R/B               
1 52794U 22058K   25322.85347731  .00027128  00000+0  51343-3 0  9994
2 52794  50.1884 165.2125 0048103  99.6193 261.0213 15.46863093192934
CZ-2C R/B               
1 54039U 22132E   25322.71351330  .00029899  00000+0  47549-3 0  9996
2 54039  97.2947 318.4899 0023340 136.2862 224.0245 15.52942593173109
GSLV R/B                
1 54149U 22138AN  25322.64213753  .00003051  00000+0  26886-3 0  9995
2 54149  87.3853 203.5400 0021008 188.3683 171.7201 14.95957746167326
XRISM                   
1 57800U 23137A   25322.18066544  .00007856  00000+0  46570-3 0  9994
2 57800  31.0030 284.0682 0007850 354.8531   5.2025 15.10004056120917
ACS3                    
1 59588U 24077B   25322.61896750  .00049170  00000+0  43274-1 0  9992
2 59588  97.3004 283.5889 0064583  19.7226 340.6411 13.84024721 78800
