CCSDS_OMM_VERS = 2.0
CREATION_DATE  = 
ORIGINATOR     = 

OBJECT_NAME    = COSMOS 2550
OBJECT_ID      = 2021-056A
CENTER_NAME    = EARTH
REF_FRAME      = TEME
TIME_SYSTEM    = UTC
MEAN_ELEMENT_THEORY = SGP/SGP4

EPOCH          = 2025-11-18T17:30:38.991744
MEAN_MOTION    = 15.33809886
ECCENTRICITY   = .0007892
INCLINATION    = 67.1441
RA_OF_ASC_NODE = 16.5593
ARG_OF_PERICENTER = 266.8859
MEAN_ANOMALY   = 93.1392

EPHEMERIS_TYPE = 0
CLASSIFICATION_TYPE = U
NORAD_CAT_ID   = 48865
ELEMENT_SET_NO = 999
REV_AT_EPOCH   = 24644
BSTAR          = .17085E-4
MEAN_MOTION_DOT = .37E-5
MEAN_MOTION_DDOT = 0

CCSDS_OMM_VERS = 2.0
CREATION_DATE  = 
ORIGINATOR     = 

OBJECT_NAME    = CZ-2C R/B
OBJECT_ID      = 2022-058K
CENTER_NAME    = EARTH
REF_FRAME      = TEME
TIME_SYSTEM    = UTC
MEAN_ELEMENT_THEORY = SGP/SGP4

EPOCH          = 2025-11-18T20:29:00.439584
MEAN_MOTION    = 15.46863093
ECCENTRICITY   = .0048103
INCLINATION    = 50.1884
RA_OF_ASC_NODE = 165.2125
ARG_OF_PERICENTER = 99.6193
MEAN_ANOMALY   = 261.0213

EPHEMERIS_TYPE = 0
CLASSIFICATION_TYPE = U
NORAD_CAT_ID   = 52794
ELEMENT_SET_NO = 999
REV_AT_EPOCH   = 19293
BSTAR          = .51343E-3
MEAN_MOTION_DOT = .27128E-3
MEAN_MOTION_DDOT = 0

CCSDS_OMM_VERS = 2.0
CREATION_DATE  = 
ORIGINATOR     = 

OBJECT_NAME    = CZ-2C R/B
OBJECT_ID      = 2022-132E
CENTER_NAME    = EARTH
REF_FRAME      = TEME
TIME_SYSTEM    = UTC
MEAN_ELEMENT_THEORY = SGP/SGP4

EPOCH          = 2025-11-18T17:07:27.549120
MEAN_MOTION    = 15.52942593
ECCENTRICITY   = .002334
INCLINATION    = 97.2947
RA_OF_ASC_NODE = 318.4899
ARG_OF_PERICENTER = 136.2862
MEAN_ANOMALY   = 224.0245

EPHEMERIS_TYPE = 0
CLASSIFICATION_TYPE = U
NORAD_CAT_ID   = 54039
ELEMENT_SET_NO = 999
REV_AT_EPOCH   = 17310
BSTAR          = .47549E-3
MEAN_MOTION_DOT = .29899E-3
MEAN_MOTION_DDOT = 0

CCSDS_OMM_VERS = 2.0
CREATION_DATE  = 
ORIGINATOR     = 

OBJECT_NAME    = GSLV R/B
OBJECT_ID      = 2022-138AN
CENTER_NAME    = EARTH
REF_FRAME      = TEME
TIME_SYSTEM    = UTC
MEAN_ELEMENT_THEORY = SGP/SGP4

EPOCH          = 2025-11-18T15:24:40.682592
MEAN_MOTION    = 14.95957746
ECCENTRICITY   = .0021008
INCLINATION    = 87.3853
RA_OF_ASC_NODE = 203.5400
ARG_OF_PERICENTER = 188.3683
MEAN_ANOMALY   = 171.7201

EPHEMERIS_TYPE = 0
CLASSIFICATION_TYPE = U
NORAD_CAT_ID   = 54149
ELEMENT_SET_NO = 999
REV_AT_EPOCH   = 16732
BSTAR          = .26886E-3
MEAN_MOTION_DOT = .3051E-4
MEAN_MOTION_DDOT = 0

CCSDS_OMM_VERS = 2.0
CREATION_DATE  = 
ORIGINATOR     = 

OBJECT_NAME    = XRISM
OBJECT_ID      = 2023-137A
CENTER_NAME    = EARTH
REF_FRAME      = TEME
TIME_SYSTEM    = UTC
MEAN_ELEMENT_THEORY = SGP/SGP4

EPOCH          = 2025-11-18T04:20:09.494016
MEAN_MOTION    = 15.10004056
ECCENTRICITY   = .000785
INCLINATION    = 31.0030
RA_OF_ASC_NODE = 284.0682
ARG_OF_PERICENTER = 354.8531
MEAN_ANOMALY   = 5.2025

EPHEMERIS_TYPE = 0
CLASSIFICATION_TYPE = U
NORAD_CAT_ID   = 57800
ELEMENT_SET_NO = 999
REV_AT_EPOCH   = 12091
BSTAR          = .4657E-3
MEAN_MOTION_DOT = .7856E-4
MEAN_MOTION_DDOT = 0

CCSDS_OMM_VERS = 2.0
CREATION_DATE  = 
ORIGINATOR     = 

OBJECT_NAME    = ACS3
OBJECT_ID      = 2024-077B
CENTER_NAME    = EARTH
REF_FRAME      = TEME
TIME_SYSTEM    = UTC
MEAN_ELEMENT_THEORY = SGP/SGP4

EPOCH          = 2025-11-18T14:51:18.792000
MEAN_MOTION    = 13.84024721
ECCENTRICITY   = .0064583
INCLINATION    = 97.3004
RA_OF_ASC_NODE = 283.5889
ARG_OF_PERICENTER = 19.7226
MEAN_ANOMALY   = 340.6411

EPHEMERIS_TYPE = 0
CLASSIFICATION_TYPE = U
NORAD_CAT_ID   = 59588
ELEMENT_SET_NO = 999
REV_AT_EPOCH   = 7880
BSTAR          = .43274E-1
MEAN_MOTION_DOT = .4917E-3
MEAN_MOTION_DDOT = 0

